[{"OBJECT_NAME":"STARLINK-34109","OBJECT_ID":"2025-092D","EPOCH":"2026-03-09T14:25:15.233664","MEAN_MOTION":15.27606412,"ECCENTRICITY":0.0001529,"INCLINATION":43.0043,"RA_OF_ASC_NODE":172.8325,"ARG_OF_PERICENTER":300.8176,"MEAN_ANOMALY":59.2525,"EPHEMERIS_TYPE":0,"CLASSIFICATION_TYPE":"U","NORAD_CAT_ID":63807,"ELEMENT_SET_NO":999,"REV_AT_EPOCH":4860,"BSTAR":0.00085823,"MEAN_MOTION_DOT":0.00023449,"MEAN_MOTION_DDOT":0},{"OBJECT_NAME":"FENGYUN 1C DEB","OBJECT_ID":"1999-025FAR","EPOCH":"2026-03-08T03:43:29.800128","MEAN_MOTION":14.889233,"ECCENTRICITY":0.01703105,"INCLINATION":98.6941,"RA_OF_ASC_NODE":137.2071,"ARG_OF_PERICENTER":197.5148,"MEAN_ANOMALY":162.0149,"EPHEMERIS_TYPE":0,"CLASSIFICATION_TYPE":"U","NORAD_CAT_ID":47015,"ELEMENT_SET_NO":999,"REV_AT_EPOCH":65652,"BSTAR":0.0011723418,"MEAN_MOTION_DOT":0.00014397,"MEAN_MOTION_DDOT":0}]
